     2.10           G: GLONASS NAV DATA                     RINEX VERSION / TYPE
teqc  2015Jun23                         20220420 01:25:40UTCPGM / RUN BY / DATE
Linux 2.4.21-27.ELsmp|Opteron|gcc -static|Linux x86_64|=+   COMMENT
  2022     4     9   -9.313225746155D-10                    CORR TO SYSTEM TIME
                                                            END OF HEADER
19 22  4 10 20 15  0.0-1.848889514804D-04-9.094947017729D-13 7.200000000000D+04
    5.325810546875D+03-1.720899581909D+00-0.000000000000D+00 0.000000000000D+00
    1.664222167969D+04-1.887326240540D+00 0.000000000000D+00 3.000000000000D+00
   -1.858714453125D+04-2.182684898376D+00 9.313225746155D-10 0.000000000000D+00
 4 22  4 10 20 15  0.0 1.360950991511D-04 1.818989403546D-12 7.200000000000D+04
   -1.934810839844D+04-1.458654403687D+00-9.313225746155D-10 0.000000000000D+00
    1.192836474609D+04 6.375312805176D-01-9.313225746155D-10 6.000000000000D+00
    1.160323730469D+04-3.097131729126D+00-1.862645149231D-09 0.000000000000D+00
20 22  4 10 20 15  0.0-6.838608533144D-05-0.000000000000D+00 7.200000000000D+04
    1.812672167969D+04 1.300916671753D-01 1.862645149231D-09 0.000000000000D+00
    1.797626367188D+04-2.402353286743D-01-0.000000000000D+00 2.000000000000D+00
   -5.369443359375D+02-3.609851837158D+00 9.313225746155D-10 0.000000000000D+00
 9 22  4 10 20 15  0.0 4.909839481115D-05 1.818989403546D-12 7.206000000000D+04
    7.360504882812D+03-4.534015655518D-01-0.000000000000D+00 0.000000000000D+00
    1.409939208984D+04 2.693550109863D+00 0.000000000000D+00-2.000000000000D+00
   -1.995262304688D+04 1.727968215942D+00 9.313225746155D-10 0.000000000000D+00
 5 22  4 10 20 15  0.0 9.092409163713D-05 9.094947017729D-13 7.284000000000D+04
   -3.715960937500D+03-2.874207496643D+00 9.313225746155D-10 0.000000000000D+00
    1.207005615234D+04 9.710416793823D-01-9.313225746155D-10 1.000000000000D+00
    2.217519873047D+04-1.012820243835D+00-1.862645149231D-09 0.000000000000D+00
15 22  4 10 20 45  0.0 9.692274034023D-05-0.000000000000D+00 7.380000000000D+04
   -9.197669921875D+03 2.687864303589D-01-0.000000000000D+00 0.000000000000D+00
    1.710963574219D+04-2.248680114746D+00-9.313225746155D-10 0.000000000000D+00
    1.654830810547D+04 2.476410865784D+00-1.862645149231D-09 0.000000000000D+00
 5 22  4 10 20 45  0.0 9.092595428228D-05 9.094947017729D-13 7.380000000000D+04
   -8.473521484375D+03-2.374013900757D+00 0.000000000000D+00 0.000000000000D+00
    1.407813623047D+04 1.226877212524D+00-9.313225746155D-10 1.000000000000D+00
    1.951949511719D+04-1.918916702271D+00-2.793967723846D-09 0.000000000000D+00
 4 22  4 10 20 45  0.0 1.360978931189D-04 1.818989403546D-12 7.380000000000D+04
   -2.122151171875D+04-6.186532974243D-01-1.862645149231D-09 0.000000000000D+00
    1.298287304688D+04 4.912605285645D-01-0.000000000000D+00 6.000000000000D+00
    5.652229980469D+03-3.472261428833D+00-1.862645149231D-09 0.000000000000D+00
 9 22  4 10 20 45  0.0 4.910212010145D-05 2.728484105319D-12 7.380000000000D+04
    6.931141113281D+03-4.261875152588D-02-0.000000000000D+00 0.000000000000D+00
    1.854715429688D+04 2.205571174622D+00 0.000000000000D+00-2.000000000000D+00
   -1.611218261719D+04 2.511369705200D+00 0.000000000000D+00 0.000000000000D+00
19 22  4 10 20 45  0.0-1.848917454481D-04-9.094947017729D-13 7.380000000000D+04
    1.652440917969D+03-2.338515281677D+00-9.313225746155D-10 0.000000000000D+00
    1.323352734375D+04-1.853848457336D+00 0.000000000000D+00 3.000000000000D+00
   -2.174699121094D+04-1.305475234985D+00 9.313225746155D-10 0.000000000000D+00
20 22  4 10 20 45  0.0-6.838701665401D-05-0.000000000000D+00 7.380000000000D+04
    1.771183007812D+04-6.120185852051D-01 9.313225746155D-10 0.000000000000D+00
    1.703356738281D+04-7.693853378296D-01-0.000000000000D+00 2.000000000000D+00
   -6.930260253906D+03-3.447826385498D+00 9.313225746155D-10 0.000000000000D+00
15 22  4 10 21 15  0.0 9.692274034023D-05-0.000000000000D+00 7.560000000000D+04
   -9.016852050781D+03-9.205532073975D-02-0.000000000000D+00 0.000000000000D+00
    1.255019824219D+04-2.775904655457D+00-9.313225746155D-10 0.000000000000D+00
    2.030944824219D+04 1.675580978394D+00-2.793967723846D-09 0.000000000000D+00
 5 22  4 10 21 15  0.0 9.092688560486D-05 9.094947017729D-13 7.560000000000D+04
   -1.215323925781D+04-1.692734718323D+00-9.313225746155D-10 0.000000000000D+00
    1.634762402344D+04 1.252048492432D+00-0.000000000000D+00 1.000000000000D+00
    1.535594042969D+04-2.677320480347D+00-1.862645149231D-09 0.000000000000D+00
 4 22  4 10 21 15  0.0 1.361016184092D-04 1.818989403546D-12 7.560000000000D+04
   -2.159517138672D+04 1.884393692017D-01-1.862645149231D-09 0.000000000000D+00
    1.354731640625D+04 9.720134735107D-02-0.000000000000D+00 6.000000000000D+00
   -7.355976562500D+02-3.579244613647D+00-9.313225746155D-10 0.000000000000D+00
 9 22  4 10 21 15  0.0 4.910677671432D-05 2.728484105319D-12 7.560000000000D+04
    7.113457031250D+03 2.131280899048D-01-0.000000000000D+00 0.000000000000D+00
    2.190650390625D+04 1.497147560120D+00-0.000000000000D+00-2.000000000000D+00
   -1.102869531250D+04 3.100274085999D+00 0.000000000000D+00 0.000000000000D+00
19 22  4 10 21 15  0.0-1.848945394158D-04-9.094947017729D-13 7.560000000000D+04
   -2.982107421875D+03-2.772455215454D+00-1.862645149231D-09 0.000000000000D+00
    1.011988085938D+04-1.569221496582D+00 9.313225746155D-10 3.000000000000D+00
   -2.322617333984D+04-3.273916244507D-01 9.313225746155D-10 0.000000000000D+00
20 22  4 10 21 15  0.0-6.838794797659D-05-0.000000000000D+00 7.560000000000D+04
    1.588125292969D+04-1.423943519592D+00 0.000000000000D+00 0.000000000000D+00
    1.535820751953D+04-1.047151565552D+00-0.000000000000D+00 2.000000000000D+00
   -1.278911328125D+04-3.019808769226D+00 9.313225746155D-10 0.000000000000D+00
 5 22  4 10 21 45  0.0 9.092781692743D-05 9.094947017729D-13 7.740000000000D+04
   -1.452252050781D+04-9.369850158691D-01-9.313225746155D-10 0.000000000000D+00
    1.842493212891D+04 1.011132240295D+00-0.000000000000D+00 1.000000000000D+00
    1.000536523438D+04-3.229218482971D+00-1.862645149231D-09 0.000000000000D+00
 4 22  4 10 21 45  0.0 1.361044123769D-04 1.818989403546D-12 7.740000000000D+04
   -2.062831591797D+04 8.544263839722D-01-2.793967723846D-09 0.000000000000D+00
    1.321147070312D+04-4.977941513062D-01 0.000000000000D+00 6.000000000000D+00
   -7.066432617188D+03-3.409257888794D+00-9.313225746155D-10 0.000000000000D+00
 9 22  4 10 21 45  0.0 4.911050200462D-05 2.728484105319D-12 7.740000000000D+04
    7.567634277344D+03 2.522811889648D-01-0.000000000000D+00 0.000000000000D+00
    2.385942382812D+04 6.602497100830D-01-0.000000000000D+00-2.000000000000D+00
   -5.095186035156D+03 3.449816703796D+00-0.000000000000D+00 0.000000000000D+00
20 22  4 10 21 45  0.0-6.838887929916D-05-0.000000000000D+00 7.740000000000D+04
    1.261460937500D+04-2.187702178955D+00-0.000000000000D+00 0.000000000000D+00
    1.342736669922D+04-1.053938865662D+00 0.000000000000D+00 2.000000000000D+00
   -1.766125537109D+04-2.358530998230D+00 9.313225746155D-10 0.000000000000D+00
15 22  4 10 21 45  0.0 9.692180901766D-05-0.000000000000D+00 7.743000000000D+04
   -9.587812500000D+03-5.501737594604D-01-0.000000000000D+00 0.000000000000D+00
    7.282958984375D+03-3.026917457581D+00-9.313225746155D-10 0.000000000000D+00
    2.250272705078D+04 7.456293106079D-01-2.793967723846D-09 0.000000000000D+00
10 22  4 10 21 45  0.0-8.138082921505D-05-0.000000000000D+00 7.821000000000D+04
    1.173764453125D+04 5.959692001343D-01-0.000000000000D+00 0.000000000000D+00
    1.285899462891D+04 2.480527877808D+00 0.000000000000D+00-7.000000000000D+00
   -1.862205029297D+04 2.096476554871D+00 9.313225746155D-10 0.000000000000D+00
 5 22  4 10 22 15  0.0 9.092967957258D-05 9.094947017729D-13 7.920000000000D+04
   -1.555070556641D+04-2.214021682739D-01-1.862645149231D-09 0.000000000000D+00
    1.983312255859D+04 5.141019821167D-01 0.000000000000D+00 1.000000000000D+00
    3.880850585938D+03-3.531604766846D+00-1.862645149231D-09 0.000000000000D+00
 4 22  4 10 22 15  0.0 1.361081376672D-04 1.818989403546D-12 7.920000000000D+04
   -1.865421679688D+04 1.296768188477D+00-2.793967723846D-09 0.000000000000D+00
    1.168483642578D+04-1.209346771240D+00 9.313225746155D-10 6.000000000000D+00
   -1.284994189453D+04-2.974994659424D+00-0.000000000000D+00 0.000000000000D+00
 9 22  4 10 22 15  0.0 4.911515861750D-05 2.728484105319D-12 7.920000000000D+04
    7.877768554688D+03 5.308341979980D-02-0.000000000000D+00 0.000000000000D+00
    2.427256250000D+04-1.946849822998D-01-0.000000000000D+00-2.000000000000D+00
    1.230743652344D+03 3.533543586731D+00-9.313225746155D-10 0.000000000000D+00
10 22  4 10 22 15  0.0-8.138176053762D-05-0.000000000000D+00 7.920000000000D+04
    1.297771875000D+04 7.447748184204D-01-0.000000000000D+00 0.000000000000D+00
    1.673420263672D+04 1.796744346619D+00 0.000000000000D+00-7.000000000000D+00
   -1.417584863281D+04 2.811745643616D+00 0.000000000000D+00 0.000000000000D+00
20 22  4 10 22 15  0.0-6.838981062174D-05-0.000000000000D+00 7.920000000000D+04
    8.103398925781D+03-2.789095878601D+00-9.313225746155D-10 0.000000000000D+00
    1.171104394531D+04-8.171224594116D-01 9.313225746155D-10 2.000000000000D+00
   -2.117000341797D+04-1.514692306519D+00 9.313225746155D-10 0.000000000000D+00
 6 22  4 10 22 15  0.0-4.242733120918D-05-1.818989403546D-12 7.947000000000D+04
   -7.364350585938D+02-1.724267005920D+00-0.000000000000D+00 0.000000000000D+00
    1.575288281250D+04 2.136575698853D+00-9.313225746155D-10-4.000000000000D+00
    2.003912500000D+04-1.744313240051D+00-1.862645149231D-09 0.000000000000D+00
 5 22  4 10 22 45  0.0 9.093061089516D-05 9.094947017729D-13 8.100000000000D+04
   -1.540655078125D+04 3.501548767090D-01-1.862645149231D-09 0.000000000000D+00
    2.015398388672D+04-1.845579147339D-01 9.313225746155D-10 1.000000000000D+00
   -2.544023925781D+03-3.560725212097D+00-9.313225746155D-10 0.000000000000D+00
